
{
  "response": {
  "version":"0.1",
  "termsofService":"http://www.wunderground.com/weather/api/d/terms.html",
  "features": {
  "history": 1
  }
	}
		,
	"history": {
		"date": {
		"pretty": "January 13, 2016",
		"year": "2016",
		"mon": "01",
		"mday": "13",
		"hour": "00",
		"min": "00",
		"tzname": "America/Montreal"
		},
		"utcdate": {
		"pretty": "January 13, 2016",
		"year": "2016",
		"mon": "01",
		"mday": "13",
		"hour": "05",
		"min": "00",
		"tzname": "UTC"
		},
		"observations": [
		{
		"date": {
		"pretty": "12:00 AM EST on January 13, 2016",
		"year": "2016",
		"mon": "01",
		"mday": "13",
		"hour": "00",
		"min": "00",
		"tzname": "America/Montreal"
		},
		"utcdate": {
		"pretty": "5:00 AM GMT on January 13, 2016",
		"year": "2016",
		"mon": "01",
		"mday": "13",
		"hour": "05",
		"min": "00",
		"tzname": "UTC"
		},
		"tempm":"-3.0", "tempi":"26.6","dewptm":"-8.0", "dewpti":"17.6","hum":"69","wspdm":"25.9", "wspdi":"16.1","wgustm":"-9999.0", "wgusti":"-9999.0","wdird":"230","wdire":"SW","vism":"24.1", "visi":"15.0","pressurem":"999.5", "pressurei":"29.52","windchillm":"-9.9", "windchilli":"14.3","heatindexm":"-9999", "heatindexi":"-9999","precipm":"-9999.00", "precipi":"-9999.00","conds":"Light Snow","icon":"snow","fog":"0","rain":"0","snow":"1","hail":"0","thunder":"0","tornado":"0","metar":"METAR CYUL 130500Z 23014KT 15SM -SN FEW015 BKN055 OVC075 M03/M08 A2951 RMK SF1SC5AC3 SF TR -SN INTMT SLP995" },
		{
		"date": {
		"pretty": "1:00 AM EST on January 13, 2016",
		"year": "2016",
		"mon": "01",
		"mday": "13",
		"hour": "01",
		"min": "00",
		"tzname": "America/Montreal"
		},
		"utcdate": {
		"pretty": "6:00 AM GMT on January 13, 2016",
		"year": "2016",
		"mon": "01",
		"mday": "13",
		"hour": "06",
		"min": "00",
		"tzname": "UTC"
		},
		"tempm":"-4", "tempi":"25","dewptm":"-10", "dewpti":"15","hum":"52","wspdm":"22.2", "wspdi":"13.8","wgustm":"", "wgusti":"","wdird":"230","wdire":"SW","vism":"24", "visi":"15","pressurem":"999", "pressurei":"29.52","windchillm":"-999", "windchilli":"-999","heatindexm":"-9999", "heatindexi":"-9999","precipm":"", "precipi":"","conds":"Light Snow","icon":"snow","fog":"0","rain":"0","snow":"1","hail":"0","thunder":"0","tornado":"0","metar":"AAXX 13064 71627 11574 82312 11041 21097 39949 49994 56010 69981 77072 8657/ 333 11030 21114 47004 70032 90927 93101 555 10048 20032 31431 40171" },
		{
		"date": {
		"pretty": "1:00 AM EST on January 13, 2016",
		"year": "2016",
		"mon": "01",
		"mday": "13",
		"hour": "01",
		"min": "00",
		"tzname": "America/Montreal"
		},
		"utcdate": {
		"pretty": "6:00 AM GMT on January 13, 2016",
		"year": "2016",
		"mon": "01",
		"mday": "13",
		"hour": "06",
		"min": "00",
		"tzname": "UTC"
		},
		"tempm":"-4.0", "tempi":"24.8","dewptm":"-10.0", "dewpti":"14.0","hum":"64","wspdm":"22.2", "wspdi":"13.8","wgustm":"-9999.0", "wgusti":"-9999.0","wdird":"230","wdire":"SW","vism":"24.1", "visi":"15.0","pressurem":"999.3", "pressurei":"29.51","windchillm":"-10.6", "windchilli":"12.9","heatindexm":"-9999", "heatindexi":"-9999","precipm":"-9999.00", "precipi":"-9999.00","conds":"Light Snow","icon":"snow","fog":"0","rain":"0","snow":"1","hail":"0","thunder":"0","tornado":"0","metar":"METAR CYUL 130600Z 23012KT 15SM -SN FEW020 BKN058 OVC080 M04/M10 A2950 RMK SC1SC5AC2 SLP993" },
		{
		"date": {
		"pretty": "2:00 AM EST on January 13, 2016",
		"year": "2016",
		"mon": "01",
		"mday": "13",
		"hour": "02",
		"min": "00",
		"tzname": "America/Montreal"
		},
		"utcdate": {
		"pretty": "7:00 AM GMT on January 13, 2016",
		"year": "2016",
		"mon": "01",
		"mday": "13",
		"hour": "07",
		"min": "00",
		"tzname": "UTC"
		},
		"tempm":"-5.0", "tempi":"23.0","dewptm":"-10.0", "dewpti":"14.0","hum":"68","wspdm":"33.3", "wspdi":"20.7","wgustm":"44.4", "wgusti":"27.6","wdird":"240","wdire":"WSW","vism":"24.1", "visi":"15.0","pressurem":"999.7", "pressurei":"29.52","windchillm":"-13.4", "windchilli":"8.0","heatindexm":"-9999", "heatindexi":"-9999","precipm":"-9999.00", "precipi":"-9999.00","conds":"Light Snow","icon":"snow","fog":"0","rain":"0","snow":"1","hail":"0","thunder":"0","tornado":"0","metar":"METAR CYUL 130700Z 24018G24KT 15SM -SN FEW030 BKN052 OVC090 M05/M10 A2951 RMK SC2SC3AC3 SLP997" },
		{
		"date": {
		"pretty": "3:00 AM EST on January 13, 2016",
		"year": "2016",
		"mon": "01",
		"mday": "13",
		"hour": "03",
		"min": "00",
		"tzname": "America/Montreal"
		},
		"utcdate": {
		"pretty": "8:00 AM GMT on January 13, 2016",
		"year": "2016",
		"mon": "01",
		"mday": "13",
		"hour": "08",
		"min": "00",
		"tzname": "UTC"
		},
		"tempm":"-6.0", "tempi":"21.2","dewptm":"-9.0", "dewpti":"15.8","hum":"80","wspdm":"37.0", "wspdi":"23.0","wgustm":"-9999.0", "wgusti":"-9999.0","wdird":"230","wdire":"SW","vism":"16.1", "visi":"10.0","pressurem":"1000.3", "pressurei":"29.54","windchillm":"-15.1", "windchilli":"4.9","heatindexm":"-9999", "heatindexi":"-9999","precipm":"-9999.00", "precipi":"-9999.00","conds":"Light Snow","icon":"snow","fog":"0","rain":"0","snow":"1","hail":"0","thunder":"0","tornado":"0","metar":"METAR CYUL 130800Z 23020KT 10SM -SN DRSN BKN018 OVC028 M06/M09 A2953 RMK SC6SC2 SLP003" },
		{
		"date": {
		"pretty": "4:00 AM EST on January 13, 2016",
		"year": "2016",
		"mon": "01",
		"mday": "13",
		"hour": "04",
		"min": "00",
		"tzname": "America/Montreal"
		},
		"utcdate": {
		"pretty": "9:00 AM GMT on January 13, 2016",
		"year": "2016",
		"mon": "01",
		"mday": "13",
		"hour": "09",
		"min": "00",
		"tzname": "UTC"
		},
		"tempm":"-7.0", "tempi":"19.4","dewptm":"-10.0", "dewpti":"14.0","hum":"80","wspdm":"31.5", "wspdi":"19.6","wgustm":"44.4", "wgusti":"27.6","wdird":"250","wdire":"WSW","vism":"24.1", "visi":"15.0","pressurem":"1001.0", "pressurei":"29.56","windchillm":"-15.8", "windchilli":"3.6","heatindexm":"-9999", "heatindexi":"-9999","precipm":"-9999.00", "precipi":"-9999.00","conds":"Low Drifting Snow","icon":"snow","fog":"0","rain":"0","snow":"1","hail":"0","thunder":"0","tornado":"0","metar":"METAR CYUL 130900Z 25017G24KT 15SM DRSN BKN019 BKN030 OVC130 M07/M10 A2955 RMK SC5SC1AC2 SLP010" },
		{
		"date": {
		"pretty": "4:31 AM EST on January 13, 2016",
		"year": "2016",
		"mon": "01",
		"mday": "13",
		"hour": "04",
		"min": "31",
		"tzname": "America/Montreal"
		},
		"utcdate": {
		"pretty": "9:31 AM GMT on January 13, 2016",
		"year": "2016",
		"mon": "01",
		"mday": "13",
		"hour": "09",
		"min": "31",
		"tzname": "UTC"
		},
		"tempm":"-8.0", "tempi":"17.6","dewptm":"-11.0", "dewpti":"12.2","hum":"79","wspdm":"38.9", "wspdi":"24.2","wgustm":"-9999.0", "wgusti":"-9999.0","wdird":"240","wdire":"WSW","vism":"24.1", "visi":"15.0","pressurem":"1001.3", "pressurei":"29.57","windchillm":"-17.9", "windchilli":"-0.3","heatindexm":"-9999", "heatindexi":"-9999","precipm":"-9999.00", "precipi":"-9999.00","conds":"Light Snow Showers","icon":"snow","fog":"0","rain":"0","snow":"1","hail":"0","thunder":"0","tornado":"0","metar":"SPECI CYUL 130931Z 24021KT 15SM -SHSN DRSN BKN020 OVC120 M08/M11 A2956 RMK SC6AC2 SLP013" },
		{
		"date": {
		"pretty": "5:00 AM EST on January 13, 2016",
		"year": "2016",
		"mon": "01",
		"mday": "13",
		"hour": "05",
		"min": "00",
		"tzname": "America/Montreal"
		},
		"utcdate": {
		"pretty": "10:00 AM GMT on January 13, 2016",
		"year": "2016",
		"mon": "01",
		"mday": "13",
		"hour": "10",
		"min": "00",
		"tzname": "UTC"
		},
		"tempm":"-9.0", "tempi":"15.8","dewptm":"-12.0", "dewpti":"10.4","hum":"79","wspdm":"38.9", "wspdi":"24.2","wgustm":"-9999.0", "wgusti":"-9999.0","wdird":"240","wdire":"WSW","vism":"24.1", "visi":"15.0","pressurem":"1001.9", "pressurei":"29.59","windchillm":"-19.3", "windchilli":"-2.7","heatindexm":"-9999", "heatindexi":"-9999","precipm":"-9999.00", "precipi":"-9999.00","conds":"Light Snow Showers","icon":"snow","fog":"0","rain":"0","snow":"1","hail":"0","thunder":"0","tornado":"0","metar":"METAR CYUL 131000Z 24021KT 15SM -SHSN DRSN FEW018 BKN028 OVC120 M09/M12 A2958 RMK SC2SC5AC1 SLP019" },
		{
		"date": {
		"pretty": "6:00 AM EST on January 13, 2016",
		"year": "2016",
		"mon": "01",
		"mday": "13",
		"hour": "06",
		"min": "00",
		"tzname": "America/Montreal"
		},
		"utcdate": {
		"pretty": "11:00 AM GMT on January 13, 2016",
		"year": "2016",
		"mon": "01",
		"mday": "13",
		"hour": "11",
		"min": "00",
		"tzname": "UTC"
		},
		"tempm":"-10.0", "tempi":"14.0","dewptm":"-13.0", "dewpti":"8.6","hum":"79","wspdm":"38.9", "wspdi":"24.2","wgustm":"-9999.0", "wgusti":"-9999.0","wdird":"250","wdire":"WSW","vism":"24.1", "visi":"15.0","pressurem":"1003.0", "pressurei":"29.62","windchillm":"-20.6", "windchilli":"-5.1","heatindexm":"-9999", "heatindexi":"-9999","precipm":"-9999.00", "precipi":"-9999.00","conds":"Light Snow Showers","icon":"snow","fog":"0","rain":"0","snow":"1","hail":"0","thunder":"0","tornado":"0","metar":"METAR CYUL 131100Z 25021KT 15SM -SHSN DRSN FEW012 BKN025 BKN150 M10/M13 A2961 RMK SF2SC3AC2 SLP030" },
		{
		"date": {
		"pretty": "7:00 AM EST on January 13, 2016",
		"year": "2016",
		"mon": "01",
		"mday": "13",
		"hour": "07",
		"min": "00",
		"tzname": "America/Montreal"
		},
		"utcdate": {
		"pretty": "12:00 PM GMT on January 13, 2016",
		"year": "2016",
		"mon": "01",
		"mday": "13",
		"hour": "12",
		"min": "00",
		"tzname": "UTC"
		},
		"tempm":"-10", "tempi":"13","dewptm":"-14", "dewpti":"7","hum":"65","wspdm":"38.9", "wspdi":"24.2","wgustm":"", "wgusti":"","wdird":"250","wdire":"WSW","vism":"24", "visi":"15","pressurem":"1004", "pressurei":"29.65","windchillm":"-999", "windchilli":"-999","heatindexm":"-9999", "heatindexi":"-9999","precipm":"", "precipi":"","conds":"Low Drifting Snow","icon":"snow","fog":"0","rain":"0","snow":"1","hail":"0","thunder":"0","tornado":"0","metar":"AAXX 13124 71627 11574 22521 11105 21141 39996 40041 53030 69901 73687 82500 333 11030 21105 47003 70032 90937 93100" },
		{
		"date": {
		"pretty": "7:00 AM EST on January 13, 2016",
		"year": "2016",
		"mon": "01",
		"mday": "13",
		"hour": "07",
		"min": "00",
		"tzname": "America/Montreal"
		},
		"utcdate": {
		"pretty": "12:00 PM GMT on January 13, 2016",
		"year": "2016",
		"mon": "01",
		"mday": "13",
		"hour": "12",
		"min": "00",
		"tzname": "UTC"
		},
		"tempm":"-11.0", "tempi":"12.2","dewptm":"-14.0", "dewpti":"6.8","hum":"79","wspdm":"37.0", "wspdi":"23.0","wgustm":"48.2", "wgusti":"29.9","wdird":"250","wdire":"WSW","vism":"24.1", "visi":"15.0","pressurem":"1004.1", "pressurei":"29.65","windchillm":"-21.7", "windchilli":"-7.1","heatindexm":"-9999", "heatindexi":"-9999","precipm":"-9999.00", "precipi":"-9999.00","conds":"Low Drifting Snow","icon":"snow","fog":"0","rain":"0","snow":"1","hail":"0","thunder":"0","tornado":"0","metar":"METAR CYUL 131200Z 25020G26KT 15SM DRSN FEW020 M11/M14 A2964 RMK SC2 SLP041" },
		{
		"date": {
		"pretty": "8:00 AM EST on January 13, 2016",
		"year": "2016",
		"mon": "01",
		"mday": "13",
		"hour": "08",
		"min": "00",
		"tzname": "America/Montreal"
		},
		"utcdate": {
		"pretty": "1:00 PM GMT on January 13, 2016",
		"year": "2016",
		"mon": "01",
		"mday": "13",
		"hour": "13",
		"min": "00",
		"tzname": "UTC"
		},
		"tempm":"-11.0", "tempi":"12.2","dewptm":"-15.0", "dewpti":"5.0","hum":"73","wspdm":"38.9", "wspdi":"24.2","wgustm":"50.0", "wgusti":"31.1","wdird":"250","wdire":"WSW","vism":"24.1", "visi":"15.0","pressurem":"1005.0", "pressurei":"29.68","windchillm":"-21.9", "windchilli":"-7.5","heatindexm":"-9999", "heatindexi":"-9999","precipm":"-9999.00", "precipi":"-9999.00","conds":"Low Drifting Snow","icon":"snow","fog":"0","rain":"0","snow":"1","hail":"0","thunder":"0","tornado":"0","metar":"METAR CYUL 131300Z 25021G27KT 15SM DRSN FEW015 FEW030 M11/M15 A2967 RMK SC1SC1 SLP050" },
		{
		"date": {
		"pretty": "9:00 AM EST on January 13, 2016",
		"year": "2016",
		"mon": "01",
		"mday": "13",
		"hour": "09",
		"min": "00",
		"tzname": "America/Montreal"
		},
		"utcdate": {
		"pretty": "2:00 PM GMT on January 13, 2016",
		"year": "2016",
		"mon": "01",
		"mday": "13",
		"hour": "14",
		"min": "00",
		"tzname": "UTC"
		},
		"tempm":"-11.0", "tempi":"12.2","dewptm":"-16.0", "dewpti":"3.2","hum":"67","wspdm":"33.3", "wspdi":"20.7","wgustm":"51.9", "wgusti":"32.2","wdird":"260","wdire":"West","vism":"24.1", "visi":"15.0","pressurem":"1006.4", "pressurei":"29.72","windchillm":"-21.3", "windchilli":"-6.3","heatindexm":"-9999", "heatindexi":"-9999","precipm":"-9999.00", "precipi":"-9999.00","conds":"Low Drifting Snow","icon":"snow","fog":"0","rain":"0","snow":"1","hail":"0","thunder":"0","tornado":"0","metar":"METAR CYUL 131400Z 26018G28KT 15SM DRSN FEW015 FEW025 M11/M16 A2971 RMK SC1SC1 SLP064" }
		],
		"dailysummary": [
		{ "date": {
		"pretty": "12:00 AM EST on January 13, 2016",
		"year": "2016",
		"mon": "01",
		"mday": "13",
		"hour": "00",
		"min": "00",
		"tzname": "America/Montreal"
		},
		"fog":"0","rain":"0","snow":"1","snowfallm":"", "snowfalli":"","monthtodatesnowfallm":"", "monthtodatesnowfalli":"","since1julsnowfallm":"", "since1julsnowfalli":"","snowdepthm":"", "snowdepthi":"","hail":"0","thunder":"0","tornado":"0","meantempm":"-7", "meantempi":"19","meandewptm":"-12", "meandewpti":"11","meanpressurem":"1001.88", "meanpressurei":"29.59","meanwindspdm":"27", "meanwindspdi":"16","meanwdire":"WSW","meanwdird":"243","meanvism":"23.5", "meanvisi":"14.6","humidity":"72","maxtempm":"-3", "maxtempi":"26","mintempm":"-11", "mintempi":"12","maxhumidity":"80","minhumidity":"52","maxdewptm":"-8", "maxdewpti":"18","mindewptm":"-16", "mindewpti":"3","maxpressurem":"1006", "maxpressurei":"29.72","minpressurem":"999", "minpressurei":"29.51","maxwspdm":"39", "maxwspdi":"24","minwspdm":"22", "minwspdi":"14","maxvism":"24.1", "maxvisi":"15.0","minvism":"16.1", "minvisi":"10.0","gdegreedays":"0","heatingdegreedays":"46","coolingdegreedays":"0","precipm":"0.0", "precipi":"0.00","precipsource":"Precip6GroupSynop","heatingdegreedaysnormal":"","monthtodateheatingdegreedays":"","monthtodateheatingdegreedaysnormal":"","since1sepheatingdegreedays":"","since1sepheatingdegreedaysnormal":"","since1julheatingdegreedays":"","since1julheatingdegreedaysnormal":"","coolingdegreedaysnormal":"","monthtodatecoolingdegreedays":"","monthtodatecoolingdegreedaysnormal":"","since1sepcoolingdegreedays":"","since1sepcoolingdegreedaysnormal":"","since1jancoolingdegreedays":"","since1jancoolingdegreedaysnormal":"" }
		]
	}
}
